IRIDIUM 64 [+]          
1 25287U 98021C   17127.90020871  .00000129  00000-0  39119-4 0  9998
2 25287  86.3985 240.7651 0002243  91.4937 268.6516 14.34219239998945
IRIDIUM 65 [+]          
1 25288U 98021D   17127.90655743  .00000127  00000-0  38279-4 0  9995
2 25288  86.3983 240.6666 0002431  97.6186 262.5286 14.34219101998969
IRIDIUM 66 [+]          
1 25289U 98021E   17127.84312307  .00000132  00000-0  40029-4 0  9997
2 25289  86.3982 240.5966 0002328  98.3831 261.7629 14.34219380999233
IRIDIUM 67 [+]          
1 25290U 98021F   17127.84947186  .00000134  00000-0  40910-4 0  9999
2 25290  86.3984 240.7299 0002287  96.8746 263.2710 14.34219166998969
IRIDIUM 68 [+]          
1 25291U 98021G   17127.85578309  .00000141  00000-0  43320-4 0  9994
2 25291  86.3985 240.8450 0002316  95.5162 264.6298 14.34219546998937
IRIDIUM 69 [-]          
1 25319U 98026A   17127.84057501  .00000068  00000-0  15700-4 0  9994
2 25319  86.3988 262.6695 0003758  73.1919 286.9691 14.38665193996981
IRIDIUM 71 [-]          
1 25320U 98026B   17127.91201832  .00000096  00000-0  24446-4 0  9990
2 25320  86.3976 258.5475 0004173 105.3014 254.8646 14.39080525997410
IRIDIUM 70 [+]          
1 25342U 98032A   17127.90807465  .00000131  00000-0  39540-4 0  9995
2 25342  86.3989 241.0634 0002347  99.3836  39.5946 14.34219513993049
IRIDIUM 72 [+]          
1 25343U 98032B   17127.86846925  .00000130  00000-0  39407-4 0  9996
2 25343  86.3983 240.6942 0002325  97.5402 262.6058 14.34219653993044
IRIDIUM 73 [-]          
1 25344U 98032C   17127.81457036  .00000116  00000-0  25181-4 0  9991
2 25344  86.4471 219.9827 0002276 110.9460 249.1988 14.49031270  1403
IRIDIUM 74 [S]          
1 25345U 98032D   17127.87110159  .00000144  00000-0  37330-4 0  9990
2 25345  86.4498 241.1217 0007713 149.3747 348.4073 14.42447873996648
IRIDIUM 75 [+]          
1 25346U 98032E   17127.94457763  .00000056  00000-0  12821-4 0  9994
2 25346  86.3986 240.9133 0002268  95.8951 264.2504 14.34217304993631
IRIDIUM 3 [+]           
1 25431U 98048A   17127.51916997  .00000035  00000-0  53520-5 0  9997
2 25431  86.3941 272.6908 0002319  97.9612 307.9899 14.34213709979511
IRIDIUM 76 [+]          
1 25432U 98048B   17127.97132094  .00000063  00000-0  15603-4 0  9996
2 25432  86.3939 272.2569 0002172  98.5832  22.1941 14.34214777979831
IRIDIUM 82 [+]          
1 25467U 98051A   17127.95659798  .00000749  00000-0  54635-4 0  9990
2 25467  86.4044  38.8590 0183644 173.6557 186.7061 14.89172748980866
IRIDIUM 81 [+]          
1 25468U 98051B   17127.83308039  .00000093  00000-0  23786-4 0  9992
2 25468  86.4271  38.6525 0001838  85.7899 274.3510 14.38773098977027
IRIDIUM 80 [+]          
1 25469U 98051C   17127.85396869  .00000179  00000-0  57031-4 0  9998
2 25469  86.4001  38.9474 0002832  73.5881 353.2432 14.34213252977023
IRIDIUM 77 [+]          
1 25471U 98051E   17127.90735628  .00000155  00000-0  48256-4 0  9990
2 25471  86.3994  38.4773 0002207  85.8239 322.1150 14.34220221982002
IRIDIUM 2 [-]           
1 25527U 98066A   17127.87105768  .00001053  00000-0  52223-4 0  9997
2 25527  85.5325  56.0471 0007101 229.6042 130.4579 15.16445616 12256
IRIDIUM 86 [+]          
1 25528U 98066B   17127.78694158  .00000129  00000-0  38901-4 0  9994
2 25528  86.3979   6.6988 0002279  89.0980 271.0477 14.34215946973339
IRIDIUM 84 [+]          
1 25530U 98066D   17127.81865817  .00000143  00000-0  44045-4 0  9995
2 25530  86.3980   6.8498 0002104  86.6147 273.5290 14.34216262971146
IRIDIUM 83 [+]          
1 25531U 98066E   17127.78060381  .00000145  00000-0  44888-4 0  9992
2 25531  86.3983   6.9893 0002114  84.6515 275.4922 14.34216362968272
IRIDIUM 20 [+]          
1 25577U 98074A   17127.90990108  .00000073  00000-0  19161-4 0  9990
2 25577  86.3939 272.2044 0002252  95.0270 265.1183 14.34213687148054
IRIDIUM 11 [+]          
1 25578U 98074B   17127.87417345  .00000017  00000-0 -97012-6 0  9996
2 25578  86.3936 272.4215 0002219  90.1642  20.0917 14.34214024971611
IRIDIUM 14 [+]          
1 25777U 99032A   17127.89387691  .00000130  00000-0  39488-4 0  9990
2 25777  86.3986 240.7658 0002400  98.9683 261.1785 14.34218923948829
IRIDIUM 21 [+]          
1 25778U 99032B   17127.86212564  .00000006  00000-0 -47771-5 0  9992
2 25778  86.3985 240.7986 0002108  98.4407 261.7028 14.34217274942252
IRIDIUM 91 [+]          
1 27372U 02005A   17127.92201303 -.00000038  00000-0 -20744-4 0  9990
2 27372  86.3924 304.0027 0002016 102.2407   8.6193 14.34215532805804
IRIDIUM 90 [S]          
1 27373U 02005B   17127.76183660  .00000154  00000-0  39978-4 0  9994
2 27373  86.4494   6.9804 0002201  89.4499 270.6954 14.42966083805452
IRIDIUM 94 [+]          
1 27374U 02005C   17127.96431359  .00000066  00000-0  16602-4 0  9999
2 27374  86.3940 272.5127 0002212 114.8677   2.4528 14.34215009810157
IRIDIUM 95 [+]          
1 27375U 02005D   17127.86884728 -.00000038  00000-0 -20575-4 0  9996
2 27375  86.3692 304.0925 0002041  90.6643 269.4787 14.34215261805104
IRIDIUM 96 [+]          
1 27376U 02005E   17127.63760488 -.00000033  00000-0 -18835-4 0  9999
2 27376  86.3975 336.1657 0000865  75.4399 284.6892 14.34222660210969
IRIDIUM 97 [+]          
1 27450U 02031A   17127.67567619 -.00000023  00000-0 -15171-4 0  9995
2 27450  86.3944 335.8411 0002114  78.2424 281.9009 14.34221653784373
IRIDIUM 98 [+]          
1 27451U 02031B   17127.86043720  .00000136  00000-0  41488-4 0  9992
2 27451  86.3993  39.0459 0002728  86.4886 340.8773 14.34213657785501
